{
  "norad_id": 62806,
  "name": "STARLINK-32883",
  "history": [
    {
      "epoch": "2026-03-28T20:28:56.058240Z",
      "apogee_km": 475.9569092652928,
      "perigee_km": 474.384760447977,
      "latitude_deg": 2.1469968472241165e-05,
      "longitude_deg": 86.99972844797175,
      "height_km": 476.0086052302129,
      "semi_major_axis_km": 6853.307834856635,
      "eccentricity": 0.0001147,
      "inclination_deg": 53.1579,
      "raan_deg": 220.5012,
      "arg_perigee_deg": 85.6038,
      "mean_anomaly_deg": 274.5094,
      "mean_motion_rev_day": 15.30214815
    }
  ]
}